NUSAT-1 (FRESCO)        
1 41557U 16033B   22354.22922541  .00024679  00000+0  60381-3 0  9996
2 41557  97.3896  92.9410 0010616  73.0581 348.5448 15.40721611365928
BEESAT-4                
1 41619U 16040W   22353.65328783  .00031310  00000+0  84524-3 0  9992
2 41619  97.1924  39.7802 0008176 159.7693 200.3877 15.37677730349117
CAS-2T & KS-1Q          
1 41847U 16066G   22353.74942073  .00000887  00000+0  14195-3 0  9999
2 41847  98.5297  58.0405 0362762  15.5491 345.6498 14.38963133320992
NAYIF-1 (EO-88)         
1 42017U 17008BX  22353.74234134  .00037462  00000+0  85847-3 0  9999
2 42017  97.2469  57.7929 0002869 314.2815  45.8197 15.42664867325554
ZHUHAI-1 02 (CAS-4B)    
1 42759U 17034B   22353.99971159  .00007003  00000+0  39514-3 0  9991
2 42759  43.0181  28.8625 0010424  15.9838  61.3631 15.13584150304451
ZHUHAI-1 01 (CAS-4A)    
1 42761U 17034D   22354.22384381  .00007256  00000+0  40772-3 0  9994
2 42761  43.0183  26.2768 0010194  19.7273  64.0264 15.13689164304492
MAX VALIER SAT          
1 42778U 17036P   22353.84862446  .00015981  00000+0  53952-3 0  9992
2 42778  97.1837  28.7375 0010873  34.6912 325.5037 15.30701576305223
RADFXSAT (FOX-1B)       
1 43017U 17073E   22353.69847084  .00008778  00000+0  64672-3 0  9991
2 43017  97.6531 240.2377 0242092 300.6895  57.0663 14.83013193274556
FOX-1D (AO-92)          
1 43137U 18004AC  22353.94425275  .00019654  00000+0  60006-3 0  9993
2 43137  97.3527  67.7450 0008318  67.4363 292.7759 15.33911423274726
DIWATA-2B               
1 43678U 18084H   22354.04440141  .00001143  00000+0  11689-3 0  9999
2 43678  97.9953 129.8357 0010699  39.2447 320.9501 14.92563640225538
ES'HAIL 2               
1 43700U 18090A   22354.32439750  .00000171  00000+0  00000+0 0  9998
2 43700   0.0255  13.3062 0001231 297.6900 280.4537  1.00270608 15136
FOX-1CLIFF (AO-95)      
1 43770U 18099N   22353.75629513  .00003584  00000+0  31187-3 0  9993
2 43770  97.6003  55.1820 0014317  18.6858 341.4887 14.97490206220732
ITASAT 1                
1 43786U 18099AE  22354.00636499  .00003797  00000+0  32991-3 0  9990
2 43786  97.6044  56.4316 0014854  13.4171 346.7443 14.97501885220816
JY1SAT (JO-97)          
1 43803U 18099AX  22353.74971100  .00003598  00000+0  30703-3 0  9999
2 43803  97.6003  56.0156 0014849  11.5583 348.5978 14.98240285220806
UWE-4                   
1 43880U 18111E   22354.01228878  .00005176  00000+0  42671-3 0  9998
2 43880  97.6568 257.0695 0013142  65.8519 294.4077 14.99407693215491
NEXUS (FO-99)           
1 43937U 19003F   22353.80352318  .00023676  00000+0  66736-3 0  9998
2 43937  97.1120  20.3523 0016900 203.2213 156.8270 15.36276444218374
PSAT2 (NO-104)          
1 44354U 19036R   22354.19197919  .00219038  68486-5  93883-3 0  9995
2 44354  28.5219 306.3405 0129306 303.8662  54.9701 15.72003734193561
JAISAT-1                
1 44419U 19038F   22353.36407844  .00013673  00000+0  61710-3 0  9991
2 44419  97.6577 325.6367 0016436 205.9129 154.1285 15.20995852191121
DUCHIFAT-3              
1 44854U 19089C   22353.97755546  .00006727  00000+0  50008-3 0  9992
2 44854  36.9646  79.3605 0008088 294.7546 233.9652 15.02655560165830
CAS-6 (TIANQIN 1)       
1 44881U 19093C   22353.79965009  .00000891  00000+0  11886-3 0  9991
2 44881  97.8795  70.2329 0013778 306.4824  53.5118 14.81980847162224
RS-44 & BREEZE-KM R/B   
1 44909U 19096E   22353.71666310  .00000007  00000+0 -88354-5 0  9996
2 44909  82.5214 107.2049 0216605 246.4229 111.3991 12.79717169139202
ORBITAL FACTORY 2 (OF-2)
1 45113U 19071C   22353.91326965  .00076305  00000+0  90440-3 0  9998
2 45113  51.6325 218.8838 0011092 146.0500 214.1205 15.60469887162160
HUSKYSAT-1 (HO-107)     
1 45119U 19071J   22354.06337830  .00058895  00000+0  79572-3 0  9991
2 45119  51.6335 220.6004 0010887 140.6073 219.5712 15.57116108162140
BY70-2                  
1 45857U 20042B   22354.15598228  .00011793  00000+0  14657-2 0  9998
2 45857  97.9430  69.4250 0009425 227.2350 132.8050 14.82685891132940
SALSAT                  
1 46495U 20068K   22353.80270576  .00004418  00000+0  31064-3 0  9997
2 46495  97.7493 295.4499 0016671  14.1127 346.0562 15.05508557122066
BY70-3                  
1 46839U 20079N   22354.30613253  .00060048  00000+0  91788-3 0  9990
2 46839  97.1788  65.0136 0004269  31.0815  41.4726 15.54199964118975
RADFXSAT-2 (AO-109)     
1 47311U 21002C   22353.26442938  .00012794  00000+0  44896-3 0  9990
2 47311  60.6849  24.8297 0038743  84.9815 275.5696 15.29099645106684
UVSQ-SAT                
1 47438U 21006AB  22354.11929792  .00010445  00000+0  51179-3 0  9990
2 47438  97.4144  49.3473 0011075 357.7759   2.3424 15.18279571105427
DIY-1 (ARDUIQUBE)       
1 47963U 21022AH  22353.67498212  .00041448  00000+0  18337-2 0  9994
2 47963  97.5173 253.5582 0012170 205.5520 154.5115 15.21485718 95023
XW-3 (CAS-9)            
1 50466U 21131B   22354.02326423  .00000325  00000+0  12066-3 0  9994
2 50466  98.5680  71.0655 0003656 324.6657  35.4287 14.38598317 51594
TEVEL-3                 
1 50988U 22002E   22353.95835110  .00012061  00000+0  60427-3 0  9994
2 50988  97.4610  57.9532 0009939 134.4333  37.2976 15.17473829 51514
TEVEL-8                 
1 50989U 22002F   22354.48991500  .00012107  00000+0  60730-3 0  9998
2 50989  97.4620  58.5148 0010131 133.2318 356.7379 15.17430846 51598
TEVEL-5                 
1 50998U 22002Q   22354.29398468  .00012645  00000+0  62284-3 0  9994
2 50998  97.4603  58.4972 0011496 130.1347 300.1662 15.18043786 51587
TEVEL-6                 
1 50999U 22002R   22353.97347543  .00012695  00000+0  62528-3 0  9993
2 50999  97.4597  58.1783 0011586 131.0118 354.1608 15.18042630 51534
TEVEL-1                 
1 51013U 22002AF  22354.27551985  .00012075  00000+0  60536-3 0  9991
2 51013  97.4604  58.2302 0009925 134.0434 299.0834 15.17451457 51568
TEVEL-7                 
1 51062U 22002CG  22354.02846477  .00012222  00000+0  61316-3 0  9992
2 51062  97.4615  58.0399 0010257 133.7363 345.8456 15.17420182 51522
TEVEL-4                 
1 51063U 22002CH  22353.96546501  .00012176  00000+0  61129-3 0  9990
2 51063  97.4617  57.9711 0010165 133.6934 351.4946 15.17398917 51518
TEVEL-2                 
1 51069U 22002CP  22354.01675122  .00012068  00000+0  60466-3 0  9998
2 51069  97.4600  57.9901 0009948 134.3300 346.4311 15.17471006 51521
GREENCUBE               
1 53106U 22080B   22347.05900283 -.00000003  00000+0  00000+0 0  9994
2 53106  70.1748  24.3892 0009015 226.5371 133.4539  6.42557530  9793
YUZGU 9 (RS3S)          
1 53308U 98067TT  22354.25449594  .00214154  00000+0  14430-2 0  9997
2 53308  51.6333 125.0496 0005711 259.5126 100.5230 15.73919732 23714
YUZGU 7 (RS1S)          
1 53309U 98067TU  22354.09810938  .00220965  00000+0  14318-2 0  9996
2 53309  51.6324 125.4960 0006337 262.0739  97.9542 15.74799772 23647
YUZGU 11 (RS5S)         
1 53310U 98067TV  22353.87200578  .00211772  00000+0  14323-2 0  9998
2 53310  51.6336 126.9951 0005966 255.5118 104.5220 15.73838319 23630
YUZGU 12 (RS6S)         
1 53311U 98067TW  22354.25710968  .00239757  00000+0  14735-2 0  9991
2 53311  51.6311 124.3043 0005861 265.2264  94.8067 15.75960467 23724
TSIOLKOVSKY-RYAZAN 1 (*)
1 53312U 98067TX  22354.23138504  .00225839  00000+0  14808-2 0  9997
2 53312  51.6324 124.8955 0006702 264.2837  95.7398 15.74509070 23653
TSIOLKOVSKY-RYAZAN 2 (*)
1 53313U 98067TY  22353.97155915  .00216909  00000+0  14247-2 0  9998
2 53313  51.6336 126.1613 0006185 263.8723  96.1572 15.74500209 23662
YUZGU 10 (RS4S)         
1 53321U 98067TZ  22354.24089276  .00214493  00000+0  14194-2 0  9991
2 53321  51.6328 124.9566 0006033 260.3577  99.6741 15.74335743 23706
RS29S (SXC3-2110 CYCLO*)
1 53373U 22096D   22354.51688949  .00016959  00000+0  62661-3 0  9999
2 53373  97.4275 255.1728 0003392  73.2787  52.3152 15.27794602 20315
RS32S (SXC3-212 MONITO*)
1 53374U 22096E   22354.50856802  .00015560  00000+0  57518-3 0  9996
2 53374  97.4272 255.1766 0003381  68.5505  56.4241 15.27798906 20313
RS34S (SXC3-218 KUZBAS*)
1 53375U 22096F   22354.00228563  .00012883  00000+0  48364-3 0  9993
2 53375  97.4278 254.6384 0003420  68.7766  61.5340 15.27331912 20233
RS23S (SXC3-21 UTMN)    
1 53376U 22096G   22353.98481678  .00014517  00000+0  54289-3 0  9997
2 53376  97.4277 254.6299 0003318  66.3414 349.7277 15.27432055 20238
RS28S (SXC3-214 MIET-A*)
1 53377U 22096H   22354.52170228  .00013651  00000+0  51192-3 0  9993
2 53377  97.4280 255.1660 0003480  67.8685  57.1811 15.27353998 20318
RS26S (KAI-1)           
1 53378U 22096J   22354.52908858  .00011980  00000+0  45299-3 0  9996
2 53378  97.4284 255.1552 0003278  61.5496  63.2111 15.27112799 20312
RS19S (SXC3-219 ISOI)   
1 53381U 22096M   22354.35095396  .00013996  00000+0  51651-3 0  9993
2 53381  97.4283 255.0897 0004391   6.2416 126.9281 15.27873989 20298
RS21S (CUBESX-HSE-2)    
1 53383U 22096P   22354.47276985  .00014419  00000+0  53087-3 0  9999
2 53383  97.4280 255.2218 0004569   5.3304  98.2682 15.27944316 20311
RS30S (SXC3-217 SIREN)  
1 53384U 22096Q   22353.95872777  .00012738  00000+0  47273-3 0  9995
2 53384  97.4277 254.6964 0004616   4.9480 124.9679 15.27710036 20236
RS20S (GEOSCAN-EDELVEIS)
1 53385U 22096R   22354.51138505  .00017915  00000+0  64183-3 0  9994
2 53385  97.4273 255.3492 0004776   4.9899 169.7493 15.28793139 20358
RS33S (SXC3-215 VIZARD) 
1 53386U 22096S   22354.52378648  .00020794  00000+0  72423-3 0  9995
2 53386  97.4278 255.4624 0005613   0.1849 125.8506 15.29681888 20352
CAS-5A (FO-118)         
1 54684U 22167C   22354.34213244  .00008463  00000+0  53979-3 0  9990
2 54684  97.5374 129.1445 0013966 227.5926 217.0900 15.08870811  1669
